Skip Page Navigation
NASA Logo - Jet Propulsion Laboratory				+ View the NASA Portal
+ Center for Near-Earth Object Studies			
JPL Home	Earth	Solar System	Stars & Galaxies	Technology

JPL Solar System Dynamics
BODIES		ORBITS		EPHEMERIDES		TOOLS		PHYSICAL DATA		DISCOVERY		FAQ		SITE MAP

IMPORTANT: The SSD Announcement email list is now available. Major changes are coming in the near future, including possible hostname and/or URL changes. To be notified of such changes, subscribe to this email list.

Please visit this page for more details.


Don't show this message again
HORIZONS Web-Interface
This tool provides a web-based limited interface to JPL's HORIZONS system which can be used to generate ephemerides for solar-system bodies. Full access to HORIZONS features is available via the primary telnet interface. HORIZONS system news shows recent changes and improvements. A web-interface tutorial is available to assist new users.
Current Settings
Ephemeris Type [change] : 	ELEMENTS
Target Body [change] : 	Amalthea (JV) [505]
Center [change] : 	Jupiter System Barycenter [500@5]
Time Span [change] : 	Start=JD 2458850.0, Stop=JD 2464329.0, Intervals=500
Table Settings [change] : 	CSV format=YES
Display/Output [change] : 	default (formatted HTML)
Object Data Page
 Revised: Jun 17, 2016           Amalthea / (Jupiter)                       505

 SATELLITE PHYSICAL PROPERTIES:
  Radius (km)             = 131 x 73 x 67   Density (g cm^-3)   =              
  Mass (10^20 kg )        =                 Geometric Albedo    =  0.06 
                                            V(1,0)              = +7.4

 SATELLITE ORBITAL DATA:
  Semi-major axis, a (km) = 181.3 (10^3)    Orbital period      = 0.498179 d
  Eccentricity, e         = 0.003           Rotational period   = Synchronous
  Inclination, i  (deg)   = 0.40 
Results
*******************************************************************************
Ephemeris / WWW_USER Fri May 15 20:09:39 2020 Pasadena, USA      / Horizons    
*******************************************************************************
Target body name: Amalthea (505)                  {source: jup310}
Center body name: Jupiter Barycenter (5)          {source: DE431mx}
Center-site name: BODY CENTER
*******************************************************************************
Start time      : A.D. 2020-Jan-01 12:00:00.0000 TDB
Stop  time      : A.D. 2035-Jan-01 12:00:00.0000 TDB
Step-size       : 500 steps
*******************************************************************************
Center geodetic : 0.00000000,0.00000000,0.0000000 {E-lon(deg),Lat(deg),Alt(km)}
Center cylindric: 0.00000000,0.00000000,0.0000000 {E-lon(deg),Dxy(km),Dz(km)}
Center radii    : (undefined)                                                  
Keplerian GM    : 2.8253458308830232E-07 au^3/d^2
Output units    : AU-D, deg, Julian Day Number (Tp)                            
Output type     : GEOMETRIC osculating elements
Output format   : 10
Reference frame : ICRF/J2000.0                                                 
Coordinate systm: Ecliptic and Mean Equinox of Reference Epoch                 
*******************************************************************************
            JDTDB,            Calendar Date (TDB),                     EC,                     QR,                     IN,                     OM,                      W,                     Tp,                      N,                     MA,                     TA,                      A,                     AD,                     PR,
**************************************************************************************************************************************************************************************************************************************************************************************************************************************************
$$SOE
2459836.220000000, A.D. 2022-Sep-13 17:16:48.0000,  6.589608595058586E-03,  1.208077894784207E-03,  2.438794131173721E+00,  3.453028357280430E+02,  8.024742832059633E+01,  2.459836213224636E+06,  7.181399395285041E+02,  4.865659584242209E+00,  4.930237946796316E+00,  1.216091461531493E-03,  1.224105028278778E-03,  5.012950543265405E-01,
2459847.178000000, A.D. 2022-Sep-24 16:16:19.2000,  7.033824255527434E-03,  1.208937247783063E-03,  2.547638542842237E+00,  3.420481906110028E+02,  9.362879145582527E+01,  2.459847187320236E+06,  7.168932384732344E+02,  3.533183857528974E+02,  3.532237782197936E+02,  1.217500935393562E-03,  1.226064623004060E-03,  5.021668230079712E-01,
2459858.136000000, A.D. 2022-Oct-05 15:15:50.4000,  6.400244772407510E-03,  1.208434758943339E-03,  2.590871856438421E+00,  3.381687131977137E+02,  1.206738264071096E+02,  2.459858179443189E+06,  7.180271075173805E+02,  3.288066122790829E+02,  3.284241424609093E+02,  1.216218857327050E-03,  1.224002955710761E-03,  5.013738286911206E-01,
2459869.094000000, A.D. 2022-Oct-16 14:15:21.6000,  4.194643590510912E-03,  1.209605030758982E-03,  2.561026273315068E+00,  3.342406151230116E+02,  1.300453838613186E+02,  2.459869146998499E+06,  7.193740211072145E+02,  3.218742565371888E+02,  3.215762679504988E+02,  1.214700265441809E-03,  1.219795500124637E-03,  5.004350858346414E-01,
2459880.052000000, A.D. 2022-Oct-27 13:14:52.8000,  4.987854078923225E-03,  1.212978136985255E-03,  2.461688676163738E+00,  3.308304132258630E+02,  1.399075753119718E+02,  2.459880116183657E+06,  7.155196302724985E+02,  3.140753336998052E+02,  3.136629211839935E+02,  1.219058623512991E-03,  1.225139110040727E-03,  5.031308503204833E-01,
2459891.010000000, A.D. 2022-Nov-07 12:14:24.0000,  2.708674574819909E-03,  1.211354583560976E-03,  2.310631033066379E+00,  3.285575461681598E+02,  1.815661072460408E+02,  2.459891130530532E+06,  7.194234196105172E+02,  2.732875126348616E+02,  2.729775735234307E+02,  1.214644660670776E-03,  1.217934737780576E-03,  5.004007239504346E-01,
2459901.968000000, A.D. 2022-Nov-18 11:13:55.2000,  5.293925113571826E-04,  1.216718741870735E-03,  2.133348047982183E+00,  3.280901319185352E+02,  1.249052609073294E+02,  2.459902011287346E+06,  7.170149041747746E+02,  3.289623276958222E+02,  3.289310315448748E+02,  1.217363204834976E-03,  1.218007667799217E-03,  5.020816135116890E-01,
2459912.926000000, A.D. 2022-Nov-29 10:13:26.4000,  6.707496098207462E-04,  1.215456544012317E-03,  1.967595827471697E+00,  3.299898510310063E+02,  3.477144304889901E+02,  2.459912782684606E+06,  7.179797316107881E+02,  1.028975485769647E+02,  1.029724576029522E+02,  1.216272358222030E-03,  1.217088172431744E-03,  5.014069118529846E-01,
2459923.884000000, A.D. 2022-Dec-10 09:12:57.6000,  2.153741974544912E-03,  1.213126322344992E-03,  1.860056253686343E+00,  3.342652708397994E+02,  7.324703540609846E+00,  2.459923775965497E+06,  7.184471890995341E+02,  7.761708525973336E+01,  7.785828293942311E+01,  1.215744722784785E-03,  1.218363123224578E-03,  5.010806715678101E-01,
2459934.842000000, A.D. 2022-Dec-21 08:12:28.8000,  3.731524634739727E-03,  1.210279517219909E-03,  1.844816320330507E+00,  3.397900997603948E+02,  1.083458819496055E+01,  2.459934748626797E+06,  7.192742237437567E+02,  6.716093818246652E+01,  6.755572651356199E+01,  1.214812620439672E-03,  1.219345723659435E-03,  5.005045198564643E-01,
2459945.800000000, A.D. 2023-Jan-01 07:12:00.0000,  5.868608051460332E-03,  1.211336078670265E-03,  1.928836237474658E+00,  3.445979028754160E+02,  3.653311213108777E+01,  2.459945750744547E+06,  7.160232797654799E+02,  3.526805104236438E+01,  3.565868618903713E+01,  1.218486900706349E-03,  1.225637722742433E-03,  5.027769489811997E-01,
2459956.758000000, A.D. 2023-Jan-12 06:11:31.2000,  5.077821487717318E-03,  1.208524946346855E-03,  2.081963932518175E+00,  3.472398890818616E+02,  4.587048475765615E+01,  2.459956727512522E+06,  7.193805283733876E+02,  2.193209827948598E+01,  2.215071953358600E+01,  1.214692940259885E-03,  1.220860934172915E-03,  5.004305590728270E-01,
2459967.716000000, A.D. 2023-Jan-23 05:11:02.4000,  6.806508763624787E-03,  1.208109854307934E-03,  2.259988208386555E+00,  3.474280786056475E+02,  4.664692398869115E+01,  2.459967688877129E+06,  7.178762683452593E+02,  1.947086502223141E+01,  1.973295068926992E+01,  1.216389218181465E-03,  1.224668582054996E-03,  5.014791766690072E-01,
2459978.674000000, A.D. 2023-Feb-03 04:10:33.6000,  7.209802562647461E-03,  1.208666917926538E-03,  2.422937210040191E+00,  3.456125610826362E+02,  7.605653481560780E+01,  2.459978687153668E+06,  7.169431294457870E+02,  3.505695684961229E+02,  3.504329848172693E+02,  1.217444452056859E-03,  1.226221986187179E-03,  5.021318779891063E-01,
2459989.632000000, A.D. 2023-Feb-14 03:10:04.8000,  5.747702973280790E-03,  1.207916284929364E-03,  2.539136225201386E+00,  3.424718594396873E+02,  8.810898565555802E+01,  2.459989659519351E+06,  7.191973682529102E+02,  3.402081555979585E+02,  3.399836211425764E+02,  1.214899164469221E-03,  1.221882044009077E-03,  5.005580052031054E-01,
2460000.590000000, A.D. 2023-Feb-25 02:09:36.0000,  6.014607451102195E-03,  1.210179726211068E-03,  2.589419065208251E+00,  3.386426752910061E+02,  9.947861771905733E+01,  2.460000630098863E+06,  7.168918336173107E+02,  3.312534526428086E+02,  3.309197834369307E+02,  1.217502525975536E-03,  1.224825325740004E-03,  5.021678070783746E-01,
2460011.548000000, A.D. 2023-Mar-08 01:09:07.2000,  4.781071579712950E-03,  1.211392885691092E-03,  2.567647675246025E+00,  3.346912940886820E+02,  1.171348394053835E+02,  2.460011609143456E+06,  7.171481006567226E+02,  3.161510870006903E+02,  3.157699049830564E+02,  1.217212465616926E-03,  1.223032045542759E-03,  5.019883614979010E-01,
2460022.506000000, A.D. 2023-Mar-19 00:08:38.4000,  3.411621511070047E-03,  1.211668250237982E-03,  2.476632478783680E+00,  3.311887721758268E+02,  1.448862883011901E+02,  2.460022602717408E+06,  7.183838743880048E+02,  2.905197738474747E+02,  2.901530900546156E+02,  1.215816154785153E-03,  1.219964059332325E-03,  5.011248342770583E-01,
